{
  "type": "FeatureCollection",
  "features": [
    {
      "type": "Feature",
      "properties": {
        "norad_id": 66491,
        "name": "STARLINK-35663",
        "group": "last-30-days",
        "lat": 39.98961278852885,
        "lon": -138.04060050113378,
        "alt_km": 395.92547327722787,
        "timestamp": "2025-12-07T03:52:31.203384+00:00",
        "meta_object_name": "STARLINK-35663",
        "meta_object_id": "2025-263G",
        "meta_epoch": "2025-12-06T14:00:01.999872",
        "meta_mean_motion": 15.58013241,
        "meta_eccentricity": 0.00015875,
        "meta_inclination": 43,
        "meta_ra_of_asc_node": 161.1963,
        "meta_arg_of_pericenter": 271.1983,
        "meta_mean_anomaly": 155.619,
        "meta_ephemeris_type": 0,
        "meta_classification_type": "U",
        "meta_norad_cat_id": 66491,
        "meta_element_set_no": 999,
        "meta_rev_at_epoch": 464,
        "meta_bstar": -0.030828547,
        "meta_mean_motion_dot": -0.02112901,
        "meta_mean_motion_ddot": 0,
        "tle_line1": "1 66491U 25263G   25340.58335648 -.02112901  00000+0 -30829-1 0  9990",
        "tle_line2": "2 66491  43.0000 161.1963 0001587 271.1983 155.6190 15.58013241  4645"
      },
      "geometry": {
        "type": "Point",
        "coordinates": [
          -138.04060050113378,
          39.98961278852885
        ]
      }
    },
    {
      "type": "Feature",
      "properties": {
        "norad_id": 66492,
        "name": "STARLINK-35673",
        "group": "last-30-days",
        "lat": 40.534840325639756,
        "lon": -135.6322097743131,
        "alt_km": 395.82727522572713,
        "timestamp": "2025-12-07T03:52:31.203398+00:00",
        "meta_object_name": "STARLINK-35673",
        "meta_object_id": "2025-263H",
        "meta_epoch": "2025-12-06T14:00:01.999872",
        "meta_mean_motion": 15.58008467,
        "meta_eccentricity": 0.00015706,
        "meta_inclination": 42.9998,
        "meta_ra_of_asc_node": 161.1914,
        "meta_arg_of_pericenter": 272.0472,
        "meta_mean_anomaly": 156.6893,
        "meta_ephemeris_type": 0,
        "meta_classification_type": "U",
        "meta_norad_cat_id": 66492,
        "meta_element_set_no": 999,
        "meta_rev_at_epoch": 464,
        "meta_bstar": -0.030730278,
        "meta_mean_motion_dot": -0.02106554,
        "meta_mean_motion_ddot": 0,
        "tle_line1": "1 66492U 25263H   25340.58335648 -.02106554  00000+0 -30730-1 0  9999",
        "tle_line2": "2 66492  42.9998 161.1914 0001570 272.0472 156.6893 15.58008467  4646"
      },
      "geometry": {
        "type": "Point",
        "coordinates": [
          -135.6322097743131,
          40.534840325639756
        ]
      }
    },
    {
      "type": "Feature",
      "properties": {
        "norad_id": 66493,
        "name": "STARLINK-35597",
        "group": "last-30-days",
        "lat": 41.02891463256028,
        "lon": -133.18891543857347,
        "alt_km": 395.74541607109677,
        "timestamp": "2025-12-07T03:52:31.203409+00:00",
        "meta_object_name": "STARLINK-35597",
        "meta_object_id": "2025-263J",
        "meta_epoch": "2025-12-06T14:00:01.999872",
        "meta_mean_motion": 15.58011492,
        "meta_eccentricity": 0.00015113,
        "meta_inclination": 42.9999,
        "meta_ra_of_asc_node": 161.186,
        "meta_arg_of_pericenter": 271.094,
        "meta_mean_anomaly": 159.5589,
        "meta_ephemeris_type": 0,
        "meta_classification_type": "U",
        "meta_norad_cat_id": 66493,
        "meta_element_set_no": 999,
        "meta_rev_at_epoch": 464,
        "meta_bstar": -0.03078488,
        "meta_mean_motion_dot": -0.02110059,
        "meta_mean_motion_ddot": 0,
        "tle_line1": "1 66493U 25263J   25340.58335648 -.02110059  00000+0 -30785-1 0  9995",
        "tle_line2": "2 66493  42.9999 161.1860 0001511 271.0940 159.5589 15.58011492  4648"
      },
      "geometry": {
        "type": "Point",
        "coordinates": [
          -133.18891543857347,
          41.02891463256028
        ]
      }
    },
    {
      "type": "Feature",
      "properties": {
        "norad_id": 66494,
        "name": "STARLINK-35689",
        "group": "last-30-days",
        "lat": 39.39512693874662,
        "lon": -140.4069367560651,
        "alt_km": 395.99657353409384,
        "timestamp": "2025-12-07T03:52:31.203419+00:00",
        "meta_object_name": "STARLINK-35689",
        "meta_object_id": "2025-263K",
        "meta_epoch": "2025-12-06T14:00:01.999872",
        "meta_mean_motion": 15.580111,
        "meta_eccentricity": 0.00015548,
        "meta_inclination": 42.9996,
        "meta_ra_of_asc_node": 161.2012,
        "meta_arg_of_pericenter": 269.6342,
        "meta_mean_anomaly": 155.2692,
        "meta_ephemeris_type": 0,
        "meta_classification_type": "U",
        "meta_norad_cat_id": 66494,
        "meta_element_set_no": 999,
        "meta_rev_at_epoch": 464,
        "meta_bstar": -0.030808273,
        "meta_mean_motion_dot": -0.02111489,
        "meta_mean_motion_ddot": 0,
        "tle_line1": "1 66494U 25263K   25340.58335648 -.02111489  00000+0 -30808-1 0  9990",
        "tle_line2": "2 66494  42.9996 161.2012 0001554 269.6342 155.2692 15.58011100  4646"
      },
      "geometry": {
        "type": "Point",
        "coordinates": [
          -140.4069367560651,
          39.39512693874662
        ]
      }
    },
    {
      "type": "Feature",
      "properties": {
        "norad_id": 66495,
        "name": "STARLINK-35832",
        "group": "last-30-days",
        "lat": 41.469765835679624,
        "lon": -130.7099165169837,
        "alt_km": 395.6990641130933,
        "timestamp": "2025-12-07T03:52:31.203431+00:00",
        "meta_object_name": "STARLINK-35832",
        "meta_object_id": "2025-263L",
        "meta_epoch": "2025-12-06T14:00:01.999872",
        "meta_mean_motion": 15.58009893,
        "meta_eccentricity": 0.00015302,
        "meta_inclination": 42.9994,
        "meta_ra_of_asc_node": 161.1816,
        "meta_arg_of_pericenter": 271.9398,
        "meta_mean_anomaly": 160.6312,
        "meta_ephemeris_type": 0,
        "meta_classification_type": "U",
        "meta_norad_cat_id": 66495,
        "meta_element_set_no": 999,
        "meta_rev_at_epoch": 464,
        "meta_bstar": -0.03077329,
        "meta_mean_motion_dot": -0.02109252,
        "meta_mean_motion_ddot": 0,
        "tle_line1": "1 66495U 25263L   25340.58335648 -.02109252  00000+0 -30773-1 0  9997",
        "tle_line2": "2 66495  42.9994 161.1816 0001530 271.9398 160.6312 15.58009893  4642"
      },
      "geometry": {
        "type": "Point",
        "coordinates": [
          -130.7099165169837,
          41.469765835679624
        ]
      }
    },
    {
      "type": "Feature",
      "properties": {
        "norad_id": 66496,
        "name": "STARLINK-35909",
        "group": "last-30-days",
        "lat": 41.85731882186836,
        "lon": -128.19890731090342,
        "alt_km": 395.60352243976104,
        "timestamp": "2025-12-07T03:52:31.203443+00:00",
        "meta_object_name": "STARLINK-35909",
        "meta_object_id": "2025-263M",
        "meta_epoch": "2025-12-06T14:00:01.999872",
        "meta_mean_motion": 15.5801161,
        "meta_eccentricity": 0.0001449,
        "meta_inclination": 42.9996,
        "meta_ra_of_asc_node": 161.1764,
        "meta_arg_of_pericenter": 272.2546,
        "meta_mean_anomaly": 162.2344,
        "meta_ephemeris_type": 0,
        "meta_classification_type": "U",
        "meta_norad_cat_id": 66496,
        "meta_element_set_no": 999,
        "meta_rev_at_epoch": 464,
        "meta_bstar": -0.030818003,
        "meta_mean_motion_dot": -0.02112045,
        "meta_mean_motion_ddot": 0,
        "tle_line1": "1 66496U 25263M   25340.58335648 -.02112045  00000+0 -30818-1 0  9992",
        "tle_line2": "2 66496  42.9996 161.1764 0001449 272.2546 162.2344 15.58011610  4648"
      },
      "geometry": {
        "type": "Point",
        "coordinates": [
          -128.19890731090342,
          41.85731882186836
        ]
      }
    },
    {
      "type": "Feature",
      "properties": {
        "norad_id": 66497,
        "name": "STARLINK-35899",
        "group": "last-30-days",
        "lat": 42.18886387830132,
        "lon": -125.66048170530892,
        "alt_km": 395.670814921632,
        "timestamp": "2025-12-07T03:52:31.203453+00:00",
        "meta_object_name": "STARLINK-35899",
        "meta_object_id": "2025-263N",
        "meta_epoch": "2025-12-06T14:00:01.999872",
        "meta_mean_motion": 15.58011635,
        "meta_eccentricity": 0.00016083,
        "meta_inclination": 42.9995,
        "meta_ra_of_asc_node": 161.1715,
        "meta_arg_of_pericenter": 271.8097,
        "meta_mean_anomaly": 164.5926,
        "meta_ephemeris_type": 0,
        "meta_classification_type": "U",
        "meta_norad_cat_id": 66497,
        "meta_element_set_no": 999,
        "meta_rev_at_epoch": 464,
        "meta_bstar": -0.030787916,
        "meta_mean_motion_dot": -0.02110323,
        "meta_mean_motion_ddot": 0,
        "tle_line1": "1 66497U 25263N   25340.58335648 -.02110323  00000+0 -30788-1 0  9996",
        "tle_line2": "2 66497  42.9995 161.1715 0001608 271.8097 164.5926 15.58011635  4645"
      },
      "geometry": {
        "type": "Point",
        "coordinates": [
          -125.66048170530892,
          42.18886387830132
        ]
      }
    }
  ]
}